start=new Date('2021-11-04T00:00:00.000Z').valueOf();
sats=[{"TIME_SYSTEM":"UTC","PERIOD":"95.592","EPHEMERIS_TYPE":"0","GP_ID":"188858344","SITE":"AFETR","RCS_SIZE":"LARGE","TLE_LINE2":"2 47144  53.0546 204.9208 0001657  70.9258 289.1911 15.06407597 52956","RA_OF_ASC_NODE":"204.9208","APOAPSIS":"548.338","TLE_LINE1":"1 47144U 20088Y   21307.91590610  .00007708  00000-0  53570-3 0  9997","CLASSIFICATION_TYPE":"U","OBJECT_ID":"2020-088Y","DECAY_DATE":null,"OBJECT_NAME":"STARLINK-1857","FILE":"3200165","MEAN_MOTION":"15.06407597","COUNTRY_CODE":"US","CENTER_NAME":"EARTH","MEAN_ELEMENT_THEORY":"SGP4","NORAD_CAT_ID":"47144","BSTAR":"0.00053570000000","ARG_OF_PERICENTER":"70.9258","SEMIMAJOR_AXIS":"6925.325","OBJECT_TYPE":"PAYLOAD","INCLINATION":"53.0546","ELEMENT_SET_NO":"999","EPOCH":"2021-11-03T21:58:54.287040","REV_AT_EPOCH":"5295","MEAN_MOTION_DOT":"0.00007708","REF_FRAME":"TEME","ECCENTRICITY":"0.00016570","MEAN_ANOMALY":"289.1911","LAUNCH_DATE":"2020-11-25","MEAN_MOTION_DDOT":"0.0000000000000","PERIAPSIS":"546.043"},{"OBJECT_TYPE":"PAYLOAD","SEMIMAJOR_AXIS":"6925.354","INCLINATION":"53.0552","EPOCH":"2021-11-03T20:12:45.398304","ELEMENT_SET_NO":"999","REV_AT_EPOCH":"5294","REF_FRAME":"TEME","MEAN_MOTION_DOT":"0.00000559","ECCENTRICITY":"0.00043870","LAUNCH_DATE":"2020-11-25","MEAN_ANOMALY":"220.4446","PERIAPSIS":"544.181","MEAN_MOTION_DDOT":"0.0000000000000","TIME_SYSTEM":"UTC","GP_ID":"188859596","SITE":"AFETR","RCS_SIZE":"LARGE","TLE_LINE2":"2 47145  53.0552 205.2402 0004387 139.6869 220.4446 15.06398189 52944","EPHEMERIS_TYPE":"0","PERIOD":"95.592","APOAPSIS":"550.257","TLE_LINE1":"1 47145U 20088Z   21307.84219211  .00000559  00000-0  56471-4 0  9996","RA_OF_ASC_NODE":"205.2402","DECAY_DATE":null,"OBJECT_NAME":"STARLINK-1858","OBJECT_ID":"2020-088Z","CLASSIFICATION_TYPE":"U","FILE":"3200165","MEAN_MOTION":"15.06398189","COUNTRY_CODE":"US","MEAN_ELEMENT_THEORY":"SGP4","CENTER_NAME":"EARTH","NORAD_CAT_ID":"47145","BSTAR":"0.00005647100000","ARG_OF_PERICENTER":"139.6869"},{"TIME_SYSTEM":"UTC","PERIOD":"95.592","EPHEMERIS_TYPE":"0","SITE":"AFETR","GP_ID":"188859847","RCS_SIZE":"LARGE","TLE_LINE2":"2 47146  53.0549 236.6115 0001495  79.2567 280.8590 15.06402798 52471","RA_OF_ASC_NODE":"236.6115","APOAPSIS":"548.240","TLE_LINE1":"1 47146U 20088AA  21307.53991160  .00001412  00000-0  11366-3 0  9995","CLASSIFICATION_TYPE":"U","OBJECT_ID":"2020-088AA","DECAY_DATE":null,"OBJECT_NAME":"STARLINK-1859","MEAN_MOTION":"15.06402798","FILE":"3200165","COUNTRY_CODE":"US","CENTER_NAME":"EARTH","MEAN_ELEMENT_THEORY":"SGP4","NORAD_CAT_ID":"47146","BSTAR":"0.00011366000000","ARG_OF_PERICENTER":"79.2567","SEMIMAJOR_AXIS":"6925.340","OBJECT_TYPE":"PAYLOAD","INCLINATION":"53.0549","ELEMENT_SET_NO":"999","EPOCH":"2021-11-03T12:57:28.362240","REV_AT_EPOCH":"5247","REF_FRAME":"TEME","MEAN_MOTION_DOT":"0.00001412","ECCENTRICITY":"0.00014950","MEAN_ANOMALY":"280.8590","LAUNCH_DATE":"2020-11-25","MEAN_MOTION_DDOT":"0.0000000000000","PERIAPSIS":"546.170"},{"SEMIMAJOR_AXIS":"6925.353","OBJECT_TYPE":"PAYLOAD","INCLINATION":"53.0549","ELEMENT_SET_NO":"999","EPOCH":"2021-11-03T11:24:37.800000","REV_AT_EPOCH":"5286","REF_FRAME":"TEME","MEAN_MOTION_DOT":"0.00000792","ECCENTRICITY":"0.00015310","MEAN_ANOMALY":"292.5286","LAUNCH_DATE":"2020-11-25","MEAN_MOTION_DDOT":"0.0000000000000","PERIAPSIS":"546.158","TIME_SYSTEM":"UTC","PERIOD":"95.592","EPHEMERIS_TYPE":"0","SITE":"AFETR","GP_ID":"188832580","TLE_LINE2":"2 47147  53.0549 226.9114 0001531  67.5865 292.5286 15.06398502 52867","RCS_SIZE":"LARGE","RA_OF_ASC_NODE":"226.9114","APOAPSIS":"548.278","TLE_LINE1":"1 47147U 20088AB  21307.47543750  .00000792  00000-0  72059-4 0  9994","CLASSIFICATION_TYPE":"U","OBJECT_ID":"2020-088AB","OBJECT_NAME":"STARLINK-1860","DECAY_DATE":null,"MEAN_MOTION":"15.06398502","FILE":"3199920","CENTER_NAME":"EARTH","COUNTRY_CODE":"US","MEAN_ELEMENT_THEORY":"SGP4","NORAD_CAT_ID":"47147","BSTAR":"0.00007205900000","ARG_OF_PERICENTER":"67.5865"},{"MEAN_MOTION_DDOT":"0.0000000000000","PERIAPSIS":"546.087","MEAN_ANOMALY":"290.6176","LAUNCH_DATE":"2020-11-25","ECCENTRICITY":"0.00016470","REF_FRAME":"TEME","MEAN_MOTION_DOT":"0.00000893","REV_AT_EPOCH":"5274","ELEMENT_SET_NO":"999","EPOCH":"2021-11-03T10:48:47.875968","INCLINATION":"53.0551","SEMIMAJOR_AXIS":"6925.363","OBJECT_TYPE":"PAYLOAD","ARG_OF_PERICENTER":"69.4989","BSTAR":"0.00007886200000","NORAD_CAT_ID":"47148","MEAN_ELEMENT_THEORY":"SGP4","COUNTRY_CODE":"US","CENTER_NAME":"EARTH","FILE":"3199758","MEAN_MOTION":"15.06395435","CLASSIFICATION_TYPE":"U","OBJECT_ID":"2020-088AC","OBJECT_NAME":"STARLINK-1861","DECAY_DATE":null,"RA_OF_ASC_NODE":"217.0093","APOAPSIS":"548.368","TLE_LINE1":"1 47148U 20088AC  21307.45055412  .00000893  00000-0  78862-4 0  9996","PERIOD":"95.592","EPHEMERIS_TYPE":"0","TLE_LINE2":"2 47148  53.0551 217.0093 0001647  69.4989 290.6176 15.06395435 52740","RCS_SIZE":"LARGE","SITE":"AFETR","GP_ID":"188828093","TIME_SYSTEM":"UTC"},{"REV_AT_EPOCH":"5334","MEAN_MOTION_DOT":"-0.00001813","REF_FRAME":"TEME","INCLINATION":"53.0535","SEMIMAJOR_AXIS":"6925.386","OBJECT_TYPE":"PAYLOAD","EPOCH":"2021-11-03T11:29:57.089472","ELEMENT_SET_NO":"999","PERIAPSIS":"546.218","MEAN_MOTION_DDOT":"0.0000000000000","ECCENTRICITY":"0.00014920","LAUNCH_DATE":"2020-11-25","MEAN_ANOMALY":"288.2222","TLE_LINE2":"2 47149  53.0535 226.8906 0001492  71.8929 288.2222 15.06387645 53349","RCS_SIZE":"LARGE","GP_ID":"188828822","SITE":"AFETR","PERIOD":"95.593","EPHEMERIS_TYPE":"0","TLE_LINE1":"1 47149U 20088AD  21307.47913298 -.00001813  00000-0 -10291-3 0  9990","APOAPSIS":"548.285","RA_OF_ASC_NODE":"226.8906","TIME_SYSTEM":"UTC","CENTER_NAME":"EARTH","COUNTRY_CODE":"US","MEAN_ELEMENT_THEORY":"SGP4","BSTAR":"-0.00010291000000","ARG_OF_PERICENTER":"71.8929","NORAD_CAT_ID":"47149","DECAY_DATE":null,"OBJECT_NAME":"STARLINK-1862","OBJECT_ID":"2020-088AD","CLASSIFICATION_TYPE":"U","MEAN_MOTION":"15.06387645","FILE":"3199758"},{"MEAN_MOTION_DDOT":"0.0000000000000","PERIAPSIS":"546.269","ECCENTRICITY":"0.00014190","MEAN_ANOMALY":"287.2614","LAUNCH_DATE":"2020-11-25","REV_AT_EPOCH":"5279","MEAN_MOTION_DOT":"-0.00000138","REF_FRAME":"TEME","INCLINATION":"53.0531","SEMIMAJOR_AXIS":"6925.387","OBJECT_TYPE":"PAYLOAD","ELEMENT_SET_NO":"999","EPOCH":"2021-11-03T17:42:48.951648","COUNTRY_CODE":"US","CENTER_NAME":"EARTH","MEAN_ELEMENT_THEORY":"SGP4","BSTAR":"0.00000965480000","ARG_OF_PERICENTER":"72.8531","NORAD_CAT_ID":"47150","CLASSIFICATION_TYPE":"U","OBJECT_ID":"2020-088AE","OBJECT_NAME":"STARLINK-1863","DECAY_DATE":null,"FILE":"3200165","MEAN_MOTION":"15.06387470","PERIOD":"95.593","EPHEMERIS_TYPE":"0","TLE_LINE2":"2 47150  53.0531 215.7276 0001419  72.8531 287.2614 15.06387470 52791","RCS_SIZE":"LARGE","SITE":"AFETR","GP_ID":"188859347","RA_OF_ASC_NODE":"215.7276","APOAPSIS":"548.235","TLE_LINE1":"1 47150U 20088AE  21307.73806657 -.00000138  00000-0  96548-5 0  9990","TIME_SYSTEM":"UTC"},{"MEAN_MOTION_DOT":"-0.00001577","REF_FRAME":"TEME","REV_AT_EPOCH":"5260","ELEMENT_SET_NO":"999","EPOCH":"2021-11-03T11:19:19.721856","SEMIMAJOR_AXIS":"6925.372","OBJECT_TYPE":"PAYLOAD","INCLINATION":"53.0553","MEAN_MOTION_DDOT":"0.0000000000000","PERIAPSIS":"546.120","MEAN_ANOMALY":"288.8145","LAUNCH_DATE":"2020-11-25","ECCENTRICITY":"0.00016130","RA_OF_ASC_NODE":"226.9153","APOAPSIS":"548.354","TLE_LINE1":"1 47151U 20088AF  21307.47175604 -.00001577  00000-0 -87004-4 0  9998","EPHEMERIS_TYPE":"0","PERIOD":"95.593","SITE":"AFETR","GP_ID":"188827841","RCS_SIZE":"LARGE","TLE_LINE2":"2 47151  53.0553 226.9153 0001613  71.3019 288.8145 15.06392314 52604","TIME_SYSTEM":"UTC","NORAD_CAT_ID":"47151","ARG_OF_PERICENTER":"71.3019","BSTAR":"-0.00008700400000","COUNTRY_CODE":"US","MEAN_ELEMENT_THEORY":"SGP4","CENTER_NAME":"EARTH","FILE":"3199758","MEAN_MOTION":"15.06392314","OBJECT_ID":"2020-088AF","CLASSIFICATION_TYPE":"U","DECAY_DATE":null,"OBJECT_NAME":"STARLINK-1864"},{"TIME_SYSTEM":"UTC","RCS_SIZE":"LARGE","TLE_LINE2":"2 47152  53.0550 228.1846 0001499  72.1780 287.9373 15.06393753 52567","GP_ID":"188828593","SITE":"AFETR","PERIOD":"95.593","EPHEMERIS_TYPE":"0","APOAPSIS":"548.271","TLE_LINE1":"1 47152U 20088AG  21307.19162344  .00000176  00000-0  30706-4 0  9994","RA_OF_ASC_NODE":"228.1846","OBJECT_NAME":"STARLINK-1866","DECAY_DATE":null,"CLASSIFICATION_TYPE":"U","OBJECT_ID":"2020-088AG","FILE":"3199758","MEAN_MOTION":"15.06393753","COUNTRY_CODE":"US","CENTER_NAME":"EARTH","MEAN_ELEMENT_THEORY":"SGP4","ARG_OF_PERICENTER":"72.1780","BSTAR":"0.00003070600000","NORAD_CAT_ID":"47152","INCLINATION":"53.0550","OBJECT_TYPE":"PAYLOAD","SEMIMAJOR_AXIS":"6925.368","EPOCH":"2021-11-03T04:35:56.265216","ELEMENT_SET_NO":"999","REV_AT_EPOCH":"5256","REF_FRAME":"TEME","MEAN_MOTION_DOT":"0.00000176","ECCENTRICITY":"0.00014990","LAUNCH_DATE":"2020-11-25","MEAN_ANOMALY":"287.9373","PERIAPSIS":"546.195","MEAN_MOTION_DDOT":"0.0000000000000"},{"MEAN_ANOMALY":"294.9717","LAUNCH_DATE":"2020-11-25","ECCENTRICITY":"0.00016240","MEAN_MOTION_DDOT":"0.0000000000000","PERIAPSIS":"546.129","ELEMENT_SET_NO":"999","EPOCH":"2021-11-03T11:57:07.021152","INCLINATION":"53.0546","SEMIMAJOR_AXIS":"6925.389","OBJECT_TYPE":"PAYLOAD","MEAN_MOTION_DOT":"-0.00001483","REF_FRAME":"TEME","REV_AT_EPOCH":"5254","MEAN_MOTION":"15.06386890","FILE":"3199758","CLASSIFICATION_TYPE":"U","OBJECT_ID":"2020-088AH","DECAY_DATE":null,"OBJECT_NAME":"STARLINK-1867","BSTAR":"-0.00008073000000","ARG_OF_PERICENTER":"65.1440","NORAD_CAT_ID":"47153","CENTER_NAME":"EARTH","COUNTRY_CODE":"US","MEAN_ELEMENT_THEORY":"SGP4","TIME_SYSTEM":"UTC","RA_OF_ASC_NODE":"231.8069","APOAPSIS":"548.378","TLE_LINE1":"1 47153U 20088AH  21307.49799793 -.00001483  00000-0 -80730-4 0  9998","PERIOD":"95.593","EPHEMERIS_TYPE":"0","TLE_LINE2":"2 47153  53.0546 231.8069 0001624  65.1440 294.9717 15.06386890 52548","RCS_SIZE":"LARGE","SITE":"AFETR","GP_ID":"188828323"}];
